{
  "type": "FeatureCollection",
  "features": [
    {
      "type": "Feature",
      "properties": {
        "norad_id": 24946,
        "name": "IRIDIUM 33",
        "group": "iridium-33-debris",
        "lat": 56.24379785652849,
        "lon": -120.50716548088872,
        "alt_km": 766.0138742292829,
        "timestamp": "2025-12-20T14:38:02.353997+00:00",
        "meta_object_name": "IRIDIUM 33",
        "meta_object_id": "1997-051C",
        "meta_epoch": "2025-12-20T05:41:33.469152",
        "meta_mean_motion": 14.35042342,
        "meta_eccentricity": 0.00079262,
        "meta_inclination": 86.3865,
        "meta_ra_of_asc_node": 65.0747,
        "meta_arg_of_pericenter": 175.124,
        "meta_mean_anomaly": 185.0035,
        "meta_ephemeris_type": 0,
        "meta_classification_type": "U",
        "meta_norad_cat_id": 24946,
        "meta_element_set_no": 999,
        "meta_rev_at_epoch": 47942,
        "meta_bstar": 8.8821537e-05,
        "meta_mean_motion_dot": 2.73e-06,
        "meta_mean_motion_ddot": 0,
        "tle_line1": "1 24946U 97051C   25354.23719293  .00000273  00000+0  88822-4 0  9995",
        "tle_line2": "2 24946  86.3865  65.0747 0007926 175.1240 185.0035 14.35042342479422"
      },
      "geometry": {
        "type": "Point",
        "coordinates": [
          -120.50716548088872,
          56.24379785652849
        ]
      }
    },
    {
      "type": "Feature",
      "properties": {
        "norad_id": 33773,
        "name": "IRIDIUM 33 DEB",
        "group": "iridium-33-debris",
        "lat": -46.69975681183385,
        "lon": 53.42410489438704,
        "alt_km": 763.7609110950834,
        "timestamp": "2025-12-20T14:38:02.354024+00:00",
        "meta_object_name": "IRIDIUM 33 DEB",
        "meta_object_id": "1997-051L",
        "meta_epoch": "2025-12-20T04:52:02.271648",
        "meta_mean_motion": 14.43271484,
        "meta_eccentricity": 0.00130688,
        "meta_inclination": 86.4002,
        "meta_ra_of_asc_node": 57.4269,
        "meta_arg_of_pericenter": 124.763,
        "meta_mean_anomaly": 235.4803,
        "meta_ephemeris_type": 0,
        "meta_classification_type": "U",
        "meta_norad_cat_id": 33773,
        "meta_element_set_no": 999,
        "meta_rev_at_epoch": 88455,
        "meta_bstar": 0.00020331998,
        "meta_mean_motion_dot": 7.05e-06,
        "meta_mean_motion_ddot": 0,
        "tle_line1": "1 33773U 97051L   25354.20280407  .00000705  00000+0  20332-3 0  9991",
        "tle_line2": "2 33773  86.4002  57.4269 0013068 124.7630 235.4803 14.43271484884552"
      },
      "geometry": {
        "type": "Point",
        "coordinates": [
          53.42410489438704,
          -46.69975681183385
        ]
      }
    },
    {
      "type": "Feature",
      "properties": {
        "norad_id": 33775,
        "name": "IRIDIUM 33 DEB",
        "group": "iridium-33-debris",
        "lat": -13.979070531713752,
        "lon": 45.2862182111998,
        "alt_km": 767.0245810078113,
        "timestamp": "2025-12-20T14:38:02.354039+00:00",
        "meta_object_name": "IRIDIUM 33 DEB",
        "meta_object_id": "1997-051N",
        "meta_epoch": "2025-12-20T03:10:16.234176",
        "meta_mean_motion": 14.41482945,
        "meta_eccentricity": 0.00150025,
        "meta_inclination": 86.3628,
        "meta_ra_of_asc_node": 46.3974,
        "meta_arg_of_pericenter": 132.4513,
        "meta_mean_anomaly": 256.8182,
        "meta_ephemeris_type": 0,
        "meta_classification_type": "U",
        "meta_norad_cat_id": 33775,
        "meta_element_set_no": 999,
        "meta_rev_at_epoch": 88247,
        "meta_bstar": 0.00021800805,
        "meta_mean_motion_dot": 7.28e-06,
        "meta_mean_motion_ddot": 0,
        "tle_line1": "1 33775U 97051N   25354.13213234  .00000728  00000+0  21801-3 0  9996",
        "tle_line2": "2 33775  86.3628  46.3974 0015002 132.4513 256.8182 14.41482945882473"
      },
      "geometry": {
        "type": "Point",
        "coordinates": [
          45.2862182111998,
          -13.979070531713752
        ]
      }
    },
    {
      "type": "Feature",
      "properties": {
        "norad_id": 33776,
        "name": "IRIDIUM 33 DEB",
        "group": "iridium-33-debris",
        "lat": 55.51384645192706,
        "lon": -107.78230738432691,
        "alt_km": 750.8482331878286,
        "timestamp": "2025-12-20T14:38:02.354051+00:00",
        "meta_object_name": "IRIDIUM 33 DEB",
        "meta_object_id": "1997-051P",
        "meta_epoch": "2025-12-20T05:57:25.561728",
        "meta_mean_motion": 14.38247544,
        "meta_eccentricity": 0.00152202,
        "meta_inclination": 86.4035,
        "meta_ra_of_asc_node": 77.6228,
        "meta_arg_of_pericenter": 166.1997,
        "meta_mean_anomaly": 247.4339,
        "meta_ephemeris_type": 0,
        "meta_classification_type": "U",
        "meta_norad_cat_id": 33776,
        "meta_element_set_no": 999,
        "meta_rev_at_epoch": 88190,
        "meta_bstar": 0.00020711599,
        "meta_mean_motion_dot": 6.5e-06,
        "meta_mean_motion_ddot": 0,
        "tle_line1": "1 33776U 97051P   25354.24821252  .00000650  00000+0  20712-3 0  9998",
        "tle_line2": "2 33776  86.4035  77.6228 0015220 166.1997 247.4339 14.38247544881905"
      },
      "geometry": {
        "type": "Point",
        "coordinates": [
          -107.78230738432691,
          55.51384645192706
        ]
      }
    },
    {
      "type": "Feature",
      "properties": {
        "norad_id": 33777,
        "name": "IRIDIUM 33 DEB",
        "group": "iridium-33-debris",
        "lat": 44.12846094940115,
        "lon": 35.30298716916945,
        "alt_km": 707.5951743718115,
        "timestamp": "2025-12-20T14:38:02.354063+00:00",
        "meta_object_name": "IRIDIUM 33 DEB",
        "meta_object_id": "1997-051Q",
        "meta_epoch": "2025-12-20T02:52:57.439200",
        "meta_mean_motion": 14.55661313,
        "meta_eccentricity": 0.00057464,
        "meta_inclination": 86.3776,
        "meta_ra_of_asc_node": 31.9929,
        "meta_arg_of_pericenter": 216.4794,
        "meta_mean_anomaly": 143.6022,
        "meta_ephemeris_type": 0,
        "meta_classification_type": "U",
        "meta_norad_cat_id": 33777,
        "meta_element_set_no": 999,
        "meta_rev_at_epoch": 88641,
        "meta_bstar": 0.00052721631,
        "meta_mean_motion_dot": 2.323e-05,
        "meta_mean_motion_ddot": 0,
        "tle_line1": "1 33777U 97051Q   25354.12010925  .00002323  00000+0  52722-3 0  9998",
        "tle_line2": "2 33777  86.3776  31.9929 0005746 216.4794 143.6022 14.55661313886414"
      },
      "geometry": {
        "type": "Point",
        "coordinates": [
          35.30298716916945,
          44.12846094940115
        ]
      }
    },
    {
      "type": "Feature",
      "properties": {
        "norad_id": 33850,
        "name": "IRIDIUM 33 DEB",
        "group": "iridium-33-debris",
        "lat": -13.86229156853641,
        "lon": 25.890695083159827,
        "alt_km": 764.0874267416339,
        "timestamp": "2025-12-20T14:38:02.354074+00:00",
        "meta_object_name": "IRIDIUM 33 DEB",
        "meta_object_id": "1997-051T",
        "meta_epoch": "2025-12-19T23:55:02.065152",
        "meta_mean_motion": 14.42161662,
        "meta_eccentricity": 0.00129051,
        "meta_inclination": 86.3411,
        "meta_ra_of_asc_node": 27.0591,
        "meta_arg_of_pericenter": 139.2842,
        "meta_mean_anomaly": 265.4509,
        "meta_ephemeris_type": 0,
        "meta_classification_type": "U",
        "meta_norad_cat_id": 33850,
        "meta_element_set_no": 999,
        "meta_rev_at_epoch": 88257,
        "meta_bstar": 0.00025875399,
        "meta_mean_motion_dot": 8.72e-06,
        "meta_mean_motion_ddot": 0,
        "tle_line1": "1 33850U 97051T   25353.99655168  .00000872  00000+0  25875-3 0  9994",
        "tle_line2": "2 33850  86.3411  27.0591 0012905 139.2842 265.4509 14.42161662882578"
      },
      "geometry": {
        "type": "Point",
        "coordinates": [
          25.890695083159827,
          -13.86229156853641
        ]
      }
    },
    {
      "type": "Feature",
      "properties": {
        "norad_id": 33853,
        "name": "IRIDIUM 33 DEB",
        "group": "iridium-33-debris",
        "lat": -51.62577691367194,
        "lon": 171.42977149833018,
        "alt_km": 762.0397910963957,
        "timestamp": "2025-12-20T14:38:02.354086+00:00",
        "meta_object_name": "IRIDIUM 33 DEB",
        "meta_object_id": "1997-051W",
        "meta_epoch": "2025-12-20T00:03:55.806336",
        "meta_mean_motion": 13.9909965,
        "meta_eccentricity": 0.020721,
        "meta_inclination": 85.9996,
        "meta_ra_of_asc_node": 346.6259,
        "meta_arg_of_pericenter": 213.3945,
        "meta_mean_anomaly": 201.9671,
        "meta_ephemeris_type": 0,
        "meta_classification_type": "U",
        "meta_norad_cat_id": 33853,
        "meta_element_set_no": 999,
        "meta_rev_at_epoch": 85447,
        "meta_bstar": 0.0010991,
        "meta_mean_motion_dot": 1.929e-05,
        "meta_mean_motion_ddot": 0,
        "tle_line1": "1 33853U 97051W   25354.00272924  .00001929  00000+0  10991-2 0  9991",
        "tle_line2": "2 33853  85.9996 346.6259 0207210 213.3945 201.9671 13.99099650854479"
      },
      "geometry": {
        "type": "Point",
        "coordinates": [
          171.42977149833018,
          -51.62577691367194
        ]
      }
    }
  ]
}